<?xml version="1.0" encoding="UTF-8"?>
<ndm xmlns:xsi="http://www.w3.org/2001/XMLSchema-instance" xsi:noNamespaceSchemaLocation="https://sanaregistry.org/r/ndmxml_unqualified/ndmxml-2.0.0-master-2.0.xsd">
<omm id="CCSDS_OMM_VERS" version="2.0">
<header><CREATION_DATE/><ORIGINATOR/></header><body><segment><metadata><OBJECT_NAME>KUIPER-00095</OBJECT_NAME><OBJECT_ID>2025-171C</OBJECT_ID><CENTER_NAME>EARTH</CENTER_NAME><REF_FRAME>TEME</REF_FRAME><TIME_SYSTEM>UTC</TIME_SYSTEM><MEAN_ELEMENT_THEORY>SGP4</MEAN_ELEMENT_THEORY></metadata><data><meanElements><EPOCH>2025-12-04T18:00:02.000160</EPOCH><MEAN_MOTION>15.03064979</MEAN_MOTION><ECCENTRICITY>.0005615</ECCENTRICITY><INCLINATION>51.8854</INCLINATION><RA_OF_ASC_NODE>211.8809</RA_OF_ASC_NODE><ARG_OF_PERICENTER>162.1299</ARG_OF_PERICENTER><MEAN_ANOMALY>63.4810</MEAN_ANOMALY></meanElements><tleParameters><EPHEMERIS_TYPE>0</EPHEMERIS_TYPE><CLASSIFICATION_TYPE>U</CLASSIFICATION_TYPE><NORAD_CAT_ID>65134</NORAD_CAT_ID><ELEMENT_SET_NO>999</ELEMENT_SET_NO><REV_AT_EPOCH>462</REV_AT_EPOCH><BSTAR>-.33401E-3</BSTAR><MEAN_MOTION_DOT>-.4827E-4</MEAN_MOTION_DOT><MEAN_MOTION_DDOT>0</MEAN_MOTION_DDOT></tleParameters></data></segment></body></omm>
<omm id="CCSDS_OMM_VERS" version="2.0">
<header><CREATION_DATE/><ORIGINATOR/></header><body><segment><metadata><OBJECT_NAME>KUIPER-00096</OBJECT_NAME><OBJECT_ID>2025-171D</OBJECT_ID><CENTER_NAME>EARTH</CENTER_NAME><REF_FRAME>TEME</REF_FRAME><TIME_SYSTEM>UTC</TIME_SYSTEM><MEAN_ELEMENT_THEORY>SGP4</MEAN_ELEMENT_THEORY></metadata><data><meanElements><EPOCH>2025-12-04T18:00:02.000160</EPOCH><MEAN_MOTION>14.79905156</MEAN_MOTION><ECCENTRICITY>.0011769</ECCENTRICITY><INCLINATION>51.8984</INCLINATION><RA_OF_ASC_NODE>217.9081</RA_OF_ASC_NODE><ARG_OF_PERICENTER>189.4796</ARG_OF_PERICENTER><MEAN_ANOMALY>276.2853</MEAN_ANOMALY></meanElements><tleParameters><EPHEMERIS_TYPE>0</EPHEMERIS_TYPE><CLASSIFICATION_TYPE>U</CLASSIFICATION_TYPE><NORAD_CAT_ID>65135</NORAD_CAT_ID><ELEMENT_SET_NO>999</ELEMENT_SET_NO><REV_AT_EPOCH>229</REV_AT_EPOCH><BSTAR>-.11013E-2</BSTAR><MEAN_MOTION_DOT>-.8613E-4</MEAN_MOTION_DOT><MEAN_MOTION_DDOT>0</MEAN_MOTION_DDOT></tleParameters></data></segment></body></omm>
<omm id="CCSDS_OMM_VERS" version="2.0">
<header><CREATION_DATE/><ORIGINATOR/></header><body><segment><metadata><OBJECT_NAME>KUIPER-00097</OBJECT_NAME><OBJECT_ID>2025-171E</OBJECT_ID><CENTER_NAME>EARTH</CENTER_NAME><REF_FRAME>TEME</REF_FRAME><TIME_SYSTEM>UTC</TIME_SYSTEM><MEAN_ELEMENT_THEORY>SGP4</MEAN_ELEMENT_THEORY></metadata><data><meanElements><EPOCH>2025-12-04T09:14:12.074208</EPOCH><MEAN_MOTION>14.79868471</MEAN_MOTION><ECCENTRICITY>.001086</ECCENTRICITY><INCLINATION>51.9006</INCLINATION><RA_OF_ASC_NODE>222.0840</RA_OF_ASC_NODE><ARG_OF_PERICENTER>187.8676</ARG_OF_PERICENTER><MEAN_ANOMALY>172.2117</MEAN_ANOMALY></meanElements><tleParameters><EPHEMERIS_TYPE>0</EPHEMERIS_TYPE><CLASSIFICATION_TYPE>U</CLASSIFICATION_TYPE><NORAD_CAT_ID>65136</NORAD_CAT_ID><ELEMENT_SET_NO>999</ELEMENT_SET_NO><REV_AT_EPOCH>1873</REV_AT_EPOCH><BSTAR>.14121E-2</BSTAR><MEAN_MOTION_DOT>.10552E-3</MEAN_MOTION_DOT><MEAN_MOTION_DDOT>0</MEAN_MOTION_DDOT></tleParameters></data></segment></body></omm>
<omm id="CCSDS_OMM_VERS" version="2.0">
<header><CREATION_DATE/><ORIGINATOR/></header><body><segment><metadata><OBJECT_NAME>KUIPER-00098</OBJECT_NAME><OBJECT_ID>2025-171F</OBJECT_ID><CENTER_NAME>EARTH</CENTER_NAME><REF_FRAME>TEME</REF_FRAME><TIME_SYSTEM>UTC</TIME_SYSTEM><MEAN_ELEMENT_THEORY>SGP4</MEAN_ELEMENT_THEORY></metadata><data><meanElements><EPOCH>2025-12-04T09:17:40.229088</EPOCH><MEAN_MOTION>14.79979020</MEAN_MOTION><ECCENTRICITY>.0007906</ECCENTRICITY><INCLINATION>51.8989</INCLINATION><RA_OF_ASC_NODE>224.5135</RA_OF_ASC_NODE><ARG_OF_PERICENTER>175.5807</ARG_OF_PERICENTER><MEAN_ANOMALY>184.5226</MEAN_ANOMALY></meanElements><tleParameters><EPHEMERIS_TYPE>0</EPHEMERIS_TYPE><CLASSIFICATION_TYPE>U</CLASSIFICATION_TYPE><NORAD_CAT_ID>65137</NORAD_CAT_ID><ELEMENT_SET_NO>999</ELEMENT_SET_NO><REV_AT_EPOCH>1805</REV_AT_EPOCH><BSTAR>.14852E-2</BSTAR><MEAN_MOTION_DOT>.11136E-3</MEAN_MOTION_DOT><MEAN_MOTION_DDOT>0</MEAN_MOTION_DDOT></tleParameters></data></segment></body></omm>
<omm id="CCSDS_OMM_VERS" version="2.0">
<header><CREATION_DATE/><ORIGINATOR/></header><body><segment><metadata><OBJECT_NAME>KUIPER-00099</OBJECT_NAME><OBJECT_ID>2025-171G</OBJECT_ID><CENTER_NAME>EARTH</CENTER_NAME><REF_FRAME>TEME</REF_FRAME><TIME_SYSTEM>UTC</TIME_SYSTEM><MEAN_ELEMENT_THEORY>SGP4</MEAN_ELEMENT_THEORY></metadata><data><meanElements><EPOCH>2025-12-04T18:00:02.000160</EPOCH><MEAN_MOTION>14.95656217</MEAN_MOTION><ECCENTRICITY>.0006034</ECCENTRICITY><INCLINATION>51.8945</INCLINATION><RA_OF_ASC_NODE>213.5850</RA_OF_ASC_NODE><ARG_OF_PERICENTER>217.3603</ARG_OF_PERICENTER><MEAN_ANOMALY>4.3267</MEAN_ANOMALY></meanElements><tleParameters><EPHEMERIS_TYPE>0</EPHEMERIS_TYPE><CLASSIFICATION_TYPE>U</CLASSIFICATION_TYPE><NORAD_CAT_ID>65138</NORAD_CAT_ID><ELEMENT_SET_NO>999</ELEMENT_SET_NO><REV_AT_EPOCH>540</REV_AT_EPOCH><BSTAR>-.17268E-2</BSTAR><MEAN_MOTION_DOT>-.19613E-3</MEAN_MOTION_DOT><MEAN_MOTION_DDOT>0</MEAN_MOTION_DDOT></tleParameters></data></segment></body></omm>
<omm id="CCSDS_OMM_VERS" version="2.0">
<header><CREATION_DATE/><ORIGINATOR/></header><body><segment><metadata><OBJECT_NAME>KUIPER-00100</OBJECT_NAME><OBJECT_ID>2025-171H</OBJECT_ID><CENTER_NAME>EARTH</CENTER_NAME><REF_FRAME>TEME</REF_FRAME><TIME_SYSTEM>UTC</TIME_SYSTEM><MEAN_ELEMENT_THEORY>SGP4</MEAN_ELEMENT_THEORY></metadata><data><meanElements><EPOCH>2025-12-04T18:00:02.000160</EPOCH><MEAN_MOTION>15.04844671</MEAN_MOTION><ECCENTRICITY>.0002737</ECCENTRICITY><INCLINATION>51.8885</INCLINATION><RA_OF_ASC_NODE>211.9441</RA_OF_ASC_NODE><ARG_OF_PERICENTER>219.4329</ARG_OF_PERICENTER><MEAN_ANOMALY>70.6631</MEAN_ANOMALY></meanElements><tleParameters><EPHEMERIS_TYPE>0</EPHEMERIS_TYPE><CLASSIFICATION_TYPE>U</CLASSIFICATION_TYPE><NORAD_CAT_ID>65139</NORAD_CAT_ID><ELEMENT_SET_NO>999</ELEMENT_SET_NO><REV_AT_EPOCH>560</REV_AT_EPOCH><BSTAR>-.13998E+0</BSTAR><MEAN_MOTION_DOT>-.1818023E-1</MEAN_MOTION_DOT><MEAN_MOTION_DDOT>0</MEAN_MOTION_DDOT></tleParameters></data></segment></body></omm>
<omm id="CCSDS_OMM_VERS" version="2.0">
<header><CREATION_DATE/><ORIGINATOR/></header><body><segment><metadata><OBJECT_NAME>KUIPER-00102</OBJECT_NAME><OBJECT_ID>2025-171J</OBJECT_ID><CENTER_NAME>EARTH</CENTER_NAME><REF_FRAME>TEME</REF_FRAME><TIME_SYSTEM>UTC</TIME_SYSTEM><MEAN_ELEMENT_THEORY>SGP4</MEAN_ELEMENT_THEORY></metadata><data><meanElements><EPOCH>2025-12-04T18:00:02.000160</EPOCH><MEAN_MOTION>14.95086478</MEAN_MOTION><ECCENTRICITY>.0012534</ECCENTRICITY><INCLINATION>51.8944</INCLINATION><RA_OF_ASC_NODE>213.4441</RA_OF_ASC_NODE><ARG_OF_PERICENTER>183.4684</ARG_OF_PERICENTER><MEAN_ANOMALY>345.8975</MEAN_ANOMALY></meanElements><tleParameters><EPHEMERIS_TYPE>0</EPHEMERIS_TYPE><CLASSIFICATION_TYPE>U</CLASSIFICATION_TYPE><NORAD_CAT_ID>65140</NORAD_CAT_ID><ELEMENT_SET_NO>999</ELEMENT_SET_NO><REV_AT_EPOCH>508</REV_AT_EPOCH><BSTAR>-.19778E+0</BSTAR><MEAN_MOTION_DOT>-.2004273E-1</MEAN_MOTION_DOT><MEAN_MOTION_DDOT>0</MEAN_MOTION_DDOT></tleParameters></data></segment></body></omm>
<omm id="CCSDS_OMM_VERS" version="2.0">
<header><CREATION_DATE/><ORIGINATOR/></header><body><segment><metadata><OBJECT_NAME>KUIPER-00103</OBJECT_NAME><OBJECT_ID>2025-171K</OBJECT_ID><CENTER_NAME>EARTH</CENTER_NAME><REF_FRAME>TEME</REF_FRAME><TIME_SYSTEM>UTC</TIME_SYSTEM><MEAN_ELEMENT_THEORY>SGP4</MEAN_ELEMENT_THEORY></metadata><data><meanElements><EPOCH>2025-12-04T09:54:41.097024</EPOCH><MEAN_MOTION>14.79964954</MEAN_MOTION><ECCENTRICITY>.0006383</ECCENTRICITY><INCLINATION>51.8984</INCLINATION><RA_OF_ASC_NODE>231.8942</RA_OF_ASC_NODE><ARG_OF_PERICENTER>172.6627</ARG_OF_PERICENTER><MEAN_ANOMALY>187.4430</MEAN_ANOMALY></meanElements><tleParameters><EPHEMERIS_TYPE>0</EPHEMERIS_TYPE><CLASSIFICATION_TYPE>U</CLASSIFICATION_TYPE><NORAD_CAT_ID>65141</NORAD_CAT_ID><ELEMENT_SET_NO>999</ELEMENT_SET_NO><REV_AT_EPOCH>1860</REV_AT_EPOCH><BSTAR>.52918E-3</BSTAR><MEAN_MOTION_DOT>.3818E-4</MEAN_MOTION_DOT><MEAN_MOTION_DDOT>0</MEAN_MOTION_DDOT></tleParameters></data></segment></body></omm>

</ndm>
