KUIPER-00095            
1 65134U 25171C   25338.75002315 -.00004827  00000+0 -33401-3 0  9995
2 65134  51.8854 211.8809 0005615 162.1299  63.4810 15.03064979  4626
KUIPER-00096            
1 65135U 25171D   25338.75002315 -.00008613  00000+0 -11013-2 0  9997
2 65135  51.8984 217.9081 0011769 189.4796 276.2853 14.79905156  2296
KUIPER-00097            
1 65136U 25171E   25338.38486197  .00010552  00000+0  14121-2 0  9997
2 65136  51.9006 222.0840 0010860 187.8676 172.2117 14.79868471 18735
KUIPER-00098            
1 65137U 25171F   25338.38727117  .00011136  00000+0  14852-2 0  9998
2 65137  51.8989 224.5135 0007906 175.5807 184.5226 14.79979020 18051
KUIPER-00099            
1 65138U 25171G   25338.75002315 -.00019613  00000+0 -17268-2 0  9990
2 65138  51.8945 213.5850 0006034 217.3603   4.3267 14.95656217  5403
KUIPER-00100            
1 65139U 25171H   25338.75002315 -.01818023  00000+0 -13998+0 0  9997
2 65139  51.8885 211.9441 0002737 219.4329  70.6631 15.04844671  5606
KUIPER-00102            
1 65140U 25171J   25338.75002315 -.02004273  00000+0 -19778+0 0  9996
2 65140  51.8944 213.4441 0012534 183.4684 345.8975 14.95086478  5083
KUIPER-00103            
1 65141U 25171K   25338.41297566  .00003818  00000+0  52918-3 0  9991
2 65141  51.8984 231.8942 0006383 172.6627 187.4430 14.79964954 18604
